{
    "links": {
        "self": "http://www.neowsapp.com/rest/v1/neo/3769459?api_key=iIulBulltgU6a56xZRHN4H3l9WmuAYTsLGpBGhQ2"
    },
    "id": "3769459",
    "neo_reference_id": "3769459",
    "name": "(2017 CA33)",
    "designation": "2017 CA33",
    "nasa_jpl_url": "http://ssd.jpl.nasa.gov/sbdb.cgi?sstr=3769459",
    "absolute_magnitude_h": 23.3,
    "estimated_diameter": {
        "kilometers": {
            "estimated_diameter_min": 0.058150704,
            "estimated_diameter_max": 0.130028927
        },
        "meters": {
            "estimated_diameter_min": 58.1507039646,
            "estimated_diameter_max": 130.0289270043
        },
        "miles": {
            "estimated_diameter_min": 0.0361331611,
            "estimated_diameter_max": 0.0807962044
        },
        "feet": {
            "estimated_diameter_min": 190.7831555951,
            "estimated_diameter_max": 426.6041048727
        }
    },
    "is_potentially_hazardous_asteroid": false,
    "close_approach_data": [
        {
            "close_approach_date": "2017-03-08",
            "close_approach_date_full": "2017-Mar-08 16:21",
            "epoch_date_close_approach": 1488990060000,
            "relative_velocity": {
                "kilometers_per_second": "16.9178332694",
                "kilometers_per_hour": "60904.199769876",
                "miles_per_hour": "37843.5012403432"
            },
            "miss_distance": {
                "astronomical": "0.0706593024",
                "lunar": "27.4864686336",
                "kilometers": "10570481.134725888",
                "miles": "6568192.4059897344"
            },
            "orbiting_body": "Earth"
        }
    ],
    "orbital_data": {
        "orbit_id": "6",
        "orbit_determination_date": "2020-09-06 06:25:18",
        "first_observation_date": "2017-01-26",
        "last_observation_date": "2017-02-25",
        "data_arc_in_days": 30,
        "observations_used": 10,
        "orbit_uncertainty": "8",
        "minimum_orbit_intersection": ".0402177",
        "jupiter_tisserand_invariant": "2.238",
        "epoch_osculation": "2457789.5",
        "eccentricity": ".8184563144382223",
        "semi_major_axis": "4.375257623560253",
        "inclination": "5.722029705837436",
        "ascending_node_longitude": "318.8078664820158",
        "orbital_period": "3342.749805243051",
        "perihelion_distance": ".7943003942633932",
        "perihelion_argument": "260.4197285862989",
        "aphelion_distance": "7.956214852857113",
        "perihelion_time": "2457854.498823577137",
        "mean_anomaly": "352.9999019217449",
        "mean_motion": ".1076957657540943",
        "equinox": "J2000",
        "orbit_class": {
            "orbit_class_type": "APO",
            "orbit_class_description": "Near-Earth asteroid orbits which cross the Earth’s orbit similar to that of 1862 Apollo",
            "orbit_class_range": "a (semi-major axis) > 1.0 AU; q (perihelion) < 1.017 AU"
        }
    },
    "is_sentry_object": false
}